{
  "type": "FeatureCollection",
  "name": "Секторы РПИ Екатеринбург",
  "features": [
    {
      "type": "Feature",
      "properties": {
        "name": "Сектор Урал 1",
        "code": "U1",
        "control_priority": 20,
        "geofence": true,
        "color": "#e57373",
        "min_alt_ft": 4921,
        "min_alt_exclusive": true
      },
      "geometry": {
        "type": "Polygon",
        "coordinates": [
          [
            [60.961944, 58.869722],
            [58.306111, 58.645556],
            [58.558333, 58.005],
            [56.944167, 57.368056],
            [56.083333, 56.5],
            [57.883333, 55.7],
            [59.483333, 56.083333],
            [59.983333, 55.916667],
            [60.983333, 55.91],
            [61.021111, 56.379444],
            [60.796944, 56.743333],
            [60.606667, 57.521944],
            [60.236667, 57.988611],
            [61.4725, 58.742778],
            [60.961944, 58.869722]
          ]
        ]
      }
    },
    {
      "type": "Feature",
      "properties": {
        "name": "Сектор Урал 2",
        "code": "U2",
        "control_priority": 20,
        "geofence": true,
        "color": "#ffb74d",
        "min_alt_ft": 4921,
        "min_alt_exclusive": true
      },
      "geometry": {
        "type": "Polygon",
        "coordinates": [
          [
            [63.2, 62.083333],
            [59.5, 62.0],
            [60.961944, 58.869722],
            [62.445833, 58.492778],
            [63.843333, 58.713333],
            [63.733333, 59.033333],
            [64.133333, 59.5],
            [63.7, 60.75],
            [63.666667, 61.283333],
            [63.2, 62.083333]
          ]
        ]
      }
    },
    {
      "type": "Feature",
      "properties": {
        "name": "Сектор Урал 2",
        "code": "U2",
        "control_priority": 20,
        "geofence": true,
        "color": "#ffb74d",
        "min_alt_ft": 8858,
        "min_alt_exclusive": true
      },
      "geometry": {
        "type": "Polygon",
        "coordinates": [
          [
            [59.5, 62.0],
            [57.216667, 61.166667],
            [58.306111, 58.645556],
            [60.961944, 58.869722],
            [59.5, 62.0]
          ]
        ]
      }
    },
    {
      "type": "Feature",
      "properties": {
        "name": "Сектор Урал 3",
        "code": "U3",
        "control_priority": 20,
        "geofence": true,
        "color": "#fff176",
        "min_alt_ft": 4921,
        "min_alt_exclusive": true
      },
      "geometry": {
        "type": "Polygon",
        "coordinates": [
          [
            [61.4725, 58.742778],
            [60.236667, 57.988611],
            [60.606667, 57.521944],
            [60.796944, 56.743333],
            [61.021111, 56.379444],
            [60.983333, 55.91],
            [61.733333, 55.9],
            [62.370833, 55.728056],
            [62.844167, 55.666389],
            [63.520833, 56.273889],
            [63.75, 57.0],
            [63.75, 57.383333],
            [64.133333, 57.816667],
            [63.843333, 58.713333],
            [62.445833, 58.492778],
            [61.4725, 58.742778]
          ]
        ]
      }
    },
    {
      "type": "Feature",
      "properties": {
        "name": "Сектор Урал 4",
        "code": "U4",
        "control_priority": 20,
        "geofence": true,
        "color": "#81c784",
        "min_alt_ft": 4921,
        "min_alt_exclusive": true
      },
      "geometry": {
        "type": "Polygon",
        "coordinates": [
          [
            [63.75, 57.0],
            [63.520833, 56.273889],
            [62.844167, 55.666389],
            [63.081389, 55.389167],
            [63.316667, 54.2],
            [63.316425, 54.195708],
            [63.492349, 54.200006],
            [63.636364, 54.228477],
            [63.780378, 54.265082],
            [63.888389, 54.281351],
            [64.032403, 54.277284],
            [64.068407, 54.317956],
            [64.140414, 54.305755],
            [64.212421, 54.322024],
            [64.464446, 54.330158],
            [64.464446, 54.362696],
            [64.536454, 54.354562],
            [64.644464, 54.391167],
            [64.752475, 54.399302],
            [64.752475, 54.358629],
            [64.824482, 54.366764],
            [64.968497, 54.415571],
            [65.040504, 54.395234],
            [65.112511, 54.334225],
            [65.220522, 54.34236],
            [65.256526, 54.354562],
            [65.220522, 54.3871],
            [65.220522, 54.43184],
            [65.184518, 54.439974],
            [65.220522, 54.488781],
            [65.184518, 54.521319],
            [65.292529, 54.566059],
            [65.364536, 54.582328],
            [65.472547, 54.570126],
            [65.472547, 54.610799],
            [65.436544, 54.631135],
            [65.508551, 54.651471],
            [65.616562, 54.639269],
            [65.760576, 54.598597],
            [65.832583, 54.655538],
            [65.832583, 54.692144],
            [65.90459, 54.708413],
            [65.976598, 54.708413],
            [65.976598, 54.671807],
            [65.940594, 54.631135],
            [65.976598, 54.614866],
            [66.120612, 54.635202],
            [66.336634, 54.684009],
            [66.588659, 54.724682],
            [66.69667, 54.728749],
            [66.732673, 54.724682],
            [66.768677, 54.761287],
            [66.840684, 54.773489],
            [67.056706, 54.773489],
            [67.092709, 54.797892],
            [67.308731, 54.826363],
            [67.308731, 54.862968],
            [67.380738, 54.850767],
            [67.488749, 54.850767],
            [67.560756, 54.838565],
            [67.776778, 54.883305],
            [67.776778, 54.936179],
            [67.848785, 54.972784],
            [67.920792, 54.968717],
            [67.992799, 54.940246],
            [68.208821, 54.952448],
            [68.208821, 55.021591],
            [68.280828, 55.062264],
            [68.208821, 55.119205],
            [68.208821, 55.163945],
            [68.172817, 55.188349],
            [68.316832, 55.192416],
            [68.352835, 55.176147],
            [68.388839, 55.188349],
            [68.49685, 55.188349],
            [68.640864, 55.20055],
            [68.640864, 55.257492],
            [68.712871, 55.277828],
            [68.712871, 55.33477],
            [68.784878, 55.359173],
            [68.964896, 55.294097],
            [69.0009, 55.29003],
            [69.0009, 55.338837],
            [68.928893, 55.351039],
            [68.928893, 55.428316],
            [69.0009, 55.432384],
            [69.144914, 55.387644],
            [69.15, 55.4],
            [69.216667, 55.666667],
            [68.333333, 55.816667],
            [65.033333, 56.866667],
            [63.75, 57.0]
          ]
        ]
      }
    },
    {
      "type": "Feature",
      "properties": {
        "name": "Сектор Урал 5",
        "code": "U5",
        "control_priority": 20,
        "geofence": true,
        "color": "#4db6ac",
        "min_alt_ft": 8858,
        "min_alt_exclusive": true
      },
      "geometry": {
        "type": "Polygon",
        "coordinates": [
          [
            [59.915556, 54.730278],
            [58.398333, 54.705278],
            [58.65, 54.2],
            [57.566667, 53.266667],
            [58.316667, 52.583333],
            [58.7575, 53.404167],
            [59.306389, 54.018056],
            [59.915556, 54.730278]
          ]
        ]
      }
    },
    {
      "type": "Feature",
      "properties": {
        "name": "Сектор Урал 5",
        "code": "U5",
        "control_priority": 20,
        "geofence": true,
        "color": "#4db6ac",
        "min_alt_ft": 4921,
        "min_alt_exclusive": true
      },
      "geometry": {
        "type": "Polygon",
        "coordinates": [
          [
            [63.128611, 55.155],
            [61.7975, 55.011111],
            [61.153333, 54.791667],
            [60.573611, 54.735278],
            [59.915556, 54.730278],
            [59.306389, 54.018056],
            [58.7575, 53.404167],
            [58.316667, 52.583333],
            [60.0, 51.983333],
            [60.036004, 51.954883],
            [60.108011, 51.991488],
            [60.288029, 52.007757],
            [60.39604, 52.093169],
            [60.540054, 52.170447],
            [60.648065, 52.154178],
            [60.756076, 52.182649],
            [60.792079, 52.231456],
            [60.864086, 52.235523],
            [60.972097, 52.268061],
            [61.080108, 52.325003],
            [60.972097, 52.459222],
            [60.972097, 52.508029],
            [60.828083, 52.520231],
            [60.828083, 52.625979],
            [60.720072, 52.65445],
            [60.720072, 52.752064],
            [60.864086, 52.7724],
            [60.864086, 52.788669],
            [60.936094, 52.837477],
            [61.080108, 52.910687],
            [61.044104, 52.922889],
            [61.044104, 52.967629],
            [61.116112, 52.971696],
            [61.116112, 52.987965],
            [61.224122, 53.032705],
            [61.29613, 53.012368],
            [61.29613, 52.992032],
            [61.40414, 52.992032],
            [61.440144, 53.032705],
            [61.548155, 53.020503],
            [61.620162, 52.971696],
            [61.656166, 52.963561],
            [61.728173, 52.992032],
            [61.836184, 52.992032],
            [61.908191, 53.012368],
            [61.944194, 52.959494],
            [62.016202, 52.947292],
            [62.124212, 52.992032],
            [62.124212, 53.118117],
            [62.016202, 53.130319],
            [61.908191, 53.130319],
            [61.764176, 53.175058],
            [61.692169, 53.248269],
            [61.620162, 53.240135],
            [61.620162, 53.211664],
            [61.512151, 53.211664],
            [61.440144, 53.232],
            [61.40414, 53.264538],
            [61.260126, 53.268605],
            [61.188119, 53.288942],
            [61.152115, 53.317412],
            [61.152115, 53.390623],
            [61.224122, 53.423161],
            [61.260126, 53.504506],
            [61.40414, 53.480102],
            [61.40414, 53.455699],
            [61.476148, 53.455699],
            [61.584158, 53.500439],
            [61.584158, 53.55738],
            [61.512151, 53.589918],
            [61.40414, 53.589918],
            [61.368137, 53.55738],
            [61.152115, 53.569582],
            [61.152115, 53.585851],
            [61.044104, 53.606187],
            [60.90009, 53.614322],
            [60.90009, 53.659062],
            [61.008101, 53.667196],
            [61.044104, 53.638725],
            [61.044104, 53.703801],
            [61.116112, 53.716003],
            [61.224122, 53.793281],
            [61.224122, 53.833953],
            [61.152115, 53.85429],
            [61.152115, 53.878693],
            [61.044104, 53.878693],
            [60.972097, 53.899029],
            [61.044104, 53.951904],
            [61.152115, 53.955971],
            [61.188119, 53.919366],
            [61.260126, 53.915298],
            [61.260126, 54.033249],
            [61.29613, 54.069854],
            [61.40414, 54.09019],
            [61.476148, 54.082056],
            [61.476148, 54.025114],
            [61.584158, 53.996644],
            [61.584158, 53.955971],
            [61.620162, 53.955971],
            [61.656166, 54.008845],
            [61.728173, 54.01698],
            [61.80018, 53.984442],
            [61.836184, 54.004778],
            [61.908191, 54.004778],
            [61.872187, 53.964105],
            [61.944194, 53.947836],
            [62.052205, 53.955971],
            [62.016202, 53.988509],
            [62.016202, 54.037316],
            [62.088209, 54.057652],
            [62.19622, 54.033249],
            [62.340234, 54.033249],
            [62.448245, 54.053585],
            [62.484248, 54.008845],
            [62.412241, 53.992576],
            [62.412241, 53.964105],
            [62.448245, 53.923433],
            [62.556256, 53.899029],
            [62.556256, 53.955971],
            [62.592259, 53.984442],
            [62.664266, 54.000711],
            [62.664266, 54.029182],
            [62.736274, 54.045451],
            [62.736274, 54.06172],
            [62.808281, 54.082056],
            [62.808281, 54.114594],
            [62.916292, 54.114594],
            [63.024302, 54.102392],
            [63.132313, 54.106459],
            [63.168317, 54.122728],
            [63.168317, 54.191872],
            [63.240324, 54.200006],
            [63.316425, 54.195708],
            [63.316667, 54.2],
            [63.128611, 55.155]
          ]
        ]
      }
    },
    {
      "type": "Feature",
      "properties": {
        "name": "Сектор Урал 6",
        "code": "U6",
        "control_priority": 20,
        "geofence": true,
        "color": "#4fc3f7",
        "min_alt_ft": 8858,
        "min_alt_exclusive": true
      },
      "geometry": {
        "type": "Polygon",
        "coordinates": [
          [
            [59.483333, 56.083333],
            [57.883333, 55.7],
            [58.398333, 54.705278],
            [59.915556, 54.730278],
            [60.023056, 54.853056],
            [60.189167, 55.4925],
            [59.983333, 55.916667],
            [59.483333, 56.083333]
          ]
        ]
      }
    },
    {
      "type": "Feature",
      "properties": {
        "name": "Сектор Урал 6",
        "code": "U6",
        "control_priority": 20,
        "geofence": true,
        "color": "#4fc3f7",
        "min_alt_ft": 4921,
        "min_alt_exclusive": true
      },
      "geometry": {
        "type": "Polygon",
        "coordinates": [
          [
            [59.983333, 55.916667],
            [60.189167, 55.4925],
            [60.023056, 54.853056],
            [59.915556, 54.730278],
            [60.573611, 54.735278],
            [61.153333, 54.791667],
            [61.7975, 55.011111],
            [63.128611, 55.155],
            [63.081389, 55.389167],
            [62.844167, 55.666389],
            [62.370833, 55.728056],
            [61.733333, 55.9],
            [59.983333, 55.916667]
          ]
        ]
      }
    },
    {
      "type": "Feature",
      "properties": {
        "name": "Сектор Урал 7",
        "code": "U7",
        "control_priority": 20,
        "geofence": true,
        "color": "#7986cb",
        "min_alt_ft": 4921,
        "min_alt_exclusive": true
      },
      "geometry": {
        "type": "Polygon",
        "coordinates": [
          [
            [57.216667, 61.166667],
            [55.7, 60.716667],
            [52.0, 60.0],
            [52.112778, 58.445833],
            [55.93, 58.259444],
            [58.306111, 58.645556],
            [57.216667, 61.166667]
          ]
        ]
      }
    },
    {
      "type": "Feature",
      "properties": {
        "name": "Сектор Урал 8",
        "code": "U8",
        "control_priority": 20,
        "geofence": true,
        "color": "#ba68c8",
        "min_alt_ft": 4921,
        "min_alt_exclusive": true
      },
      "geometry": {
        "type": "Polygon",
        "coordinates": [
          [
            [58.306111, 58.645556],
            [55.93, 58.259444],
            [52.112778, 58.445833],
            [52.183056, 57.406944],
            [52.2, 56.416667],
            [53.666667, 56.5],
            [56.083333, 56.5],
            [56.944167, 57.368056],
            [58.558333, 58.005],
            [58.306111, 58.645556]
          ]
        ]
      }
    },
    {
      "type": "Feature",
      "properties": {
        "name": "Сектор Урал 9",
        "code": "U9",
        "control_priority": 20,
        "geofence": true,
        "color": "#f06292",
        "min_alt_ft": 4921,
        "min_alt_exclusive": true
      },
      "geometry": {
        "type": "Polygon",
        "coordinates": [
          [
            [48.666667, 60.333333],
            [46.333333, 60.066667],
            [45.5, 59.516667],
            [45.0, 58.766667],
            [46.933333, 58.166667],
            [48.504167, 58.423611],
            [48.834444, 58.776667],
            [49.893056, 59.190556],
            [52.049167, 59.341111],
            [52.0, 60.0],
            [50.0, 60.0],
            [48.666667, 60.333333]
          ]
        ]
      }
    },
    {
      "type": "Feature",
      "properties": {
        "name": "Сектор Урал 10",
        "code": "U10",
        "control_priority": 20,
        "geofence": true,
        "color": "#a1887f",
        "min_alt_ft": 4921,
        "min_alt_exclusive": true
      },
      "geometry": {
        "type": "Polygon",
        "coordinates": [
          [
            [52.049167, 59.341111],
            [49.893056, 59.190556],
            [48.834444, 58.776667],
            [48.504167, 58.423611],
            [46.933333, 58.166667],
            [46.75, 57.233333],
            [47.916667, 57.3],
            [50.8, 56.466667],
            [51.883333, 56.366667],
            [52.2, 56.416667],
            [52.183056, 57.406944],
            [52.049167, 59.341111]
          ]
        ]
      }
    }
  ]
}
