{
  "type": "FeatureCollection",
  "name": "УДР Екатеринбург/Кольцово",
  "features": [
    {
      "type": "Feature",
      "properties": {
        "name": "Екатеринбург/Кольцово УДР",
        "code": "USSS_APP",
        "control_priority": 30,
        "geofence": true,
        "color": "#ff9800",
        "min_alt_ft": 4921,
        "min_alt_exclusive": true,
        "max_alt_ft": 19000
      },
      "geometry": {
        "type": "Polygon",
        "coordinates": [
          [
            [61.929722, 57.336667],
            [59.176667, 57.071944],
            [59.065, 56.850278],
            [59.116389, 56.430278],
            [59.483333, 56.083333],
            [59.983333, 55.916667],
            [61.733333, 55.9],
            [62.211667, 56.178333],
            [61.666667, 56.333333],
            [61.516667, 56.45],
            [61.25, 56.566667],
            [61.258333, 56.635],
            [61.270278, 56.6775],
            [61.303611, 56.705833],
            [61.375, 56.733333],
            [61.716667, 56.783333],
            [61.82, 56.735],
            [62.063611, 56.961389],
            [61.929722, 57.336667]
          ]
        ]
      }
    },
    {
      "type": "Feature",
      "properties": {
        "name": "Екатеринбург/Кольцово УДР",
        "code": "USSS_APP",
        "control_priority": 30,
        "geofence": true,
        "color": "#ff9800",
        "min_alt_ft": 7000,
        "min_alt_exclusive": true,
        "max_alt_ft": 19000
      },
      "geometry": {
        "type": "Polygon",
        "coordinates": [
          [
            [61.716667, 56.783333],
            [61.375, 56.733333],
            [61.303611, 56.705833],
            [61.270278, 56.6775],
            [61.258333, 56.635],
            [61.25, 56.566667],
            [61.516667, 56.45],
            [61.82, 56.735],
            [61.716667, 56.783333]
          ]
        ]
      }
    }
  ]
}
